OBJECT_NAME,OBJECT_ID,EPOCH,MEAN_MOTION,ECCENTRICITY,INCLINATION,RA_OF_ASC_NODE,ARG_OF_PERICENTER,MEAN_ANOMALY,EPHEMERIS_TYPE,CLASSIFICATION_TYPE,NORAD_CAT_ID,ELEMENT_SET_NO,REV_AT_EPOCH,BSTAR,MEAN_MOTION_DOT,MEAN_MOTION_DDOT
VCC A,1998-067QN,2021-03-01T06:06:19.356480,15.66488201,.0001147,51.6369,122.5792,244.7447,115.3430,0,U,44428,999,9461,.2329E-3,.24278E-3,0
ENTRYSAT,1998-067QP,2021-03-01T05:17:05.652384,15.70456393,.0000785,51.6323,117.7449,292.1513,67.9401,0,U,44429,999,9467,.29559E-3,.36566E-3,0
VCC C,1998-067QQ,2021-03-01T12:01:07.551840,15.77488013,.000254,51.6293,109.8370,354.4435,5.6537,0,U,44430,999,9363,.45483E-3,.77173E-3,0
VCC B,1998-067QR,2021-03-01T10:15:41.259168,15.66736862,.0001184,51.6342,121.4237,244.8317,115.2556,0,U,44431,999,9458,.26704E-3,.28219E-3,0
ISS DEB,1998-067QT,2021-03-01T04:51:12.786048,15.74038700,.0002975,51.6342,126.6625,302.7658,57.3055,0,U,44788,999,7352,.4537E-3,.66026E-3,0
ISS DEB,1998-067QU,2021-03-01T05:10:47.699040,15.71113967,.0003469,51.6341,129.0353,278.7642,81.2963,0,U,44789,999,7348,.39888E-3,.51047E-3,0
RWASAT-1,1998-067QV,2021-03-01T12:03:14.059584,15.57118139,.0006813,51.6418,141.2128,252.8437,228.3700,0,U,44790,999,7261,.15478E-3,.10966E-3,0
AQT-D,1998-067QW,2021-03-01T06:19:29.055072,15.57174454,.0005706,51.6409,142.9409,224.7339,135.3194,0,U,44791,999,7257,.13536E-3,.9544E-4,0
NARSSCUBE-1,1998-067QX,2021-03-01T06:26:03.970464,15.60848087,.0003936,51.6378,138.3978,255.0882,104.9676,0,U,44792,999,7263,.21333E-3,.17686E-3,0
STPSAT-4,1998-067QY,2021-03-01T06:03:54.512928,15.52657429,.0004893,51.6409,152.5377,235.6637,124.3891,0,U,45043,999,6168,.10022E-3,.5824E-4,0
HARP,1998-067QZ,2021-03-01T06:16:57.568224,15.55836367,.0006071,51.6414,148.1442,231.2937,128.7512,0,U,45256,999,5841,.17247E-3,.11689E-3,0
1998-067RA,1998-067RA,2021-03-01T05:48:19.386720,15.55145366,.0006789,51.6403,148.7295,233.3083,126.7285,0,U,45257,999,5840,.14705E-3,.9635E-4,0
PHOENIX,1998-067RB,2021-03-01T05:56:30.059232,15.54423282,.0005203,51.6402,149.5034,212.0620,148.0055,0,U,45258,999,5836,.1289E-3,.8154E-4,0
1998-067RC,1998-067RC,2021-03-01T05:57:48.894912,15.57398520,.0005761,51.6394,146.5216,234.9890,125.0561,0,U,45259,999,5843,.20707E-3,.15005E-3,0
CRYOCUBE,1998-067RD,2021-03-01T05:21:08.174592,15.57772016,.0006063,51.6393,146.3544,236.9664,123.0746,0,U,45260,999,5844,.22874E-3,.16872E-3,0
AZTECHSAT-1,1998-067RE,2021-03-01T06:09:22.729248,15.59337193,.000587,51.6383,144.3219,238.5481,121.4939,0,U,45261,999,5846,.24121E-3,.1893E-3,0
RADSAT-U,1998-067RF,2021-03-01T06:44:16.536480,15.55379612,.0005805,51.6420,148.2703,269.5998,90.4328,0,U,45262,999,5842,.13496E-3,.888E-4,0
QARMAN,1998-067RG,2021-02-28T18:42:57.671424,15.57219959,.0005816,51.6393,149.3889,229.2145,130.8343,0,U,45263,999,5838,.20711E-3,.14905E-3,0
SORTIE,1998-067RH,2021-03-01T05:52:39.956160,15.53275002,.000673,51.6416,151.0117,235.4256,124.6100,0,U,45264,999,5837,.10012E-3,.5957E-4,0
ICS-EF (ISS DEB),1998-067RJ,2021-03-01T10:14:53.264832,15.51479571,.0004851,51.6413,152.9436,234.7753,125.2783,0,U,45265,999,5804,.63018E-4,.3328E-4,0
PROGRESS-MS 14,2020-026A,2021-03-01T13:23:05.347392,15.49021001,.0003083,51.6463,155.0683,62.8763,62.1321,0,U,45595,999,27191,.3081E-4,.1249E-4,0
G-SAT,1998-067RK,2021-03-01T11:44:04.835040,15.55019795,.0004266,51.6408,148.8895,296.1017,63.9535,0,U,45597,999,4779,.15452E-3,.10098E-3,0
QUETZAL-1,1998-067RL,2021-03-01T06:49:58.596672,15.55818800,.0002478,51.6407,149.7727,323.9519,36.1305,0,U,45598,999,4769,.17726E-3,.12016E-3,0
RED-EYE 2 (MERLOT),1998-067RM,2021-03-01T07:09:49.934304,15.52021345,.0000854,51.6418,153.6044,262.4291,97.6602,0,U,45800,999,3988,.87026E-4,.4876E-4,0
RED-EYE 3 (CABERNET),1998-067RN,2021-03-01T07:10:37.246080,15.52029073,.0001031,51.6415,153.6083,244.5363,115.5520,0,U,45809,999,3886,.94098E-4,.5311E-4,0
DEMI,1998-067RP,2021-03-01T07:00:02.637216,15.55008586,.000179,51.6413,151.3223,173.1574,186.9442,0,U,45916,999,3588,.1815E-3,.11943E-3,0
TECHEDSAT 10,1998-067RQ,2021-03-01T10:35:50.009856,15.87912275,.0007784,51.6275,135.7061,0.0535,0.0469,0,U,45917,999,3605,.16786E-2,.491351E-2,0
SOYUZ-MS 17,2020-072A,2021-03-01T13:23:05.347392,15.49021001,.0003083,51.6463,155.0683,62.8763,62.1321,0,U,46613,999,27191,.3081E-4,.1249E-4,0
CREW DRAGON 1,2020-084A,2021-03-01T13:23:05.347392,15.49021001,.0003083,51.6463,155.0683,62.8763,62.1321,0,U,46920,999,27191,.3081E-4,.1249E-4,0
SPOC,1998-067RR,2021-03-01T05:58:10.818912,15.52234276,.0002414,51.6430,154.7821,34.5644,325.5503,0,U,46921,999,1804,.12737E-3,.7412E-4,0
BOBCAT-1,1998-067RS,2021-03-01T06:51:25.758720,15.52996162,.0002083,51.6430,154.2843,34.6742,325.4383,0,U,46922,999,1801,.16852E-3,.10247E-3,0
