VCC A                   
1 44428U 98067QN  21060.25439070  .00024278  00000-0  23290-3 0  9993
2 44428  51.6369 122.5792 0001147 244.7447 115.3430 15.66488201 94615
ENTRYSAT                
1 44429U 98067QP  21060.22020431  .00036566  00000-0  29559-3 0  9995
2 44429  51.6323 117.7449 0000785 292.1513  67.9401 15.70456393 94677
VCC C                   
1 44430U 98067QQ  21060.50078185  .00077173  00000-0  45483-3 0  9990
2 44430  51.6293 109.8370 0002540 354.4435   5.6537 15.77488013 93631
VCC B                   
1 44431U 98067QR  21060.42756087  .00028219  00000-0  26704-3 0  9998
2 44431  51.6342 121.4237 0001184 244.8317 115.2556 15.66736862 94583
ISS DEB                 
1 44788U 98067QT  21060.20223132  .00066026  00000-0  45370-3 0  9997
2 44788  51.6342 126.6625 0002975 302.7658  57.3055 15.74038700 73523
ISS DEB                 
1 44789U 98067QU  21060.21582985  .00051047  00000-0  39888-3 0  9997
2 44789  51.6341 129.0353 0003469 278.7642  81.2963 15.71113967 73487
RWASAT-1                
1 44790U 98067QV  21060.50224606  .00010966  00000-0  15478-3 0  9998
2 44790  51.6418 141.2128 0006813 252.8437 228.3700 15.57118139 72618
AQT-D                   
1 44791U 98067QW  21060.26353073  .00009544  00000-0  13536-3 0  9996
2 44791  51.6409 142.9409 0005706 224.7339 135.3194 15.57174454 72579
NARSSCUBE-1             
1 44792U 98067QX  21060.26810151  .00017686  00000-0  21333-3 0  9992
2 44792  51.6378 138.3978 0003936 255.0882 104.9676 15.60848087 72636
STPSAT-4                
1 45043U 98067QY  21060.25271427  .00005824  00000-0  10022-3 0  9992
2 45043  51.6409 152.5377 0004893 235.6637 124.3891 15.52657429 61684
HARP                    
1 45256U 98067QZ  21060.26177741  .00011689  00000-0  17247-3 0  9995
2 45256  51.6414 148.1442 0006071 231.2937 128.7512 15.55836367 58413
1998-067RA              
1 45257U 98067RA  21060.24189105  .00009635  00000-0  14705-3 0  9995
2 45257  51.6403 148.7295 0006789 233.3083 126.7285 15.55145366 58401
PHOENIX                 
1 45258U 98067RB  21060.24757013  .00008154  00000-0  12890-3 0  9993
2 45258  51.6402 149.5034 0005203 212.0620 148.0055 15.54423282 58364
1998-067RC              
1 45259U 98067RC  21060.24848258  .00015005  00000-0  20707-3 0  9995
2 45259  51.6394 146.5216 0005761 234.9890 125.0561 15.57398520 58439
CRYOCUBE                
1 45260U 98067RD  21060.22301128  .00016872  00000-0  22874-3 0  9995
2 45260  51.6393 146.3544 0006063 236.9664 123.0746 15.57772016 58449
AZTECHSAT-1             
1 45261U 98067RE  21060.25651307  .00018930  00000-0  24121-3 0  9990
2 45261  51.6383 144.3219 0005870 238.5481 121.4939 15.59337193 58469
RADSAT-U                
1 45262U 98067RF  21060.28074695  .00008880  00000-0  13496-3 0  9999
2 45262  51.6420 148.2703 0005805 269.5998  90.4328 15.55379612 58429
QARMAN                  
1 45263U 98067RG  21059.77983416  .00014905  00000-0  20711-3 0  9995
2 45263  51.6393 149.3889 0005816 229.2145 130.8343 15.57219959 58385
SORTIE                  
1 45264U 98067RH  21060.24490690  .00005957  00000-0  10012-3 0  9997
2 45264  51.6416 151.0117 0006730 235.4256 124.6100 15.53275002 58372
ICS-EF (ISS DEB)        
1 45265U 98067RJ  21060.42700538  .00003328  00000-0  63018-4 0  9998
2 45265  51.6413 152.9436 0004851 234.7753 125.2783 15.51479571 58043
PROGRESS-MS 14          
1 45595U 20026A   21060.55770078  .00001249  00000-0  30810-4 0  9998
2 45595  51.6463 155.0683 0003083  62.8763  62.1321 15.49021001271917
G-SAT                   
1 45597U 98067RK  21060.48894485  .00010098  00000-0  15452-3 0  9997
2 45597  51.6408 148.8895 0004266 296.1017  63.9535 15.55019795 47798
QUETZAL-1               
1 45598U 98067RL  21060.28470598  .00012016  00000-0  17726-3 0  9999
2 45598  51.6407 149.7727 0002478 323.9519  36.1305 15.55818800 47691
RED-EYE 2 (MERLOT)      
1 45800U 98067RM  21060.29849461  .00004876  00000-0  87026-4 0  9991
2 45800  51.6418 153.6044 0000854 262.4291  97.6602 15.52021345 39886
RED-EYE 3 (CABERNET)    
1 45809U 98067RN  21060.29904220  .00005311  00000-0  94098-4 0  9997
2 45809  51.6415 153.6083 0001031 244.5363 115.5520 15.52029073 38866
DEMI                    
1 45916U 98067RP  21060.29169719  .00011943  00000-0  18150-3 0  9994
2 45916  51.6413 151.3223 0001790 173.1574 186.9442 15.55008586 35880
TECHEDSAT 10            
1 45917U 98067RQ  21060.44155104  .00491351  00000-0  16786-2 0  9992
2 45917  51.6275 135.7061 0007784   0.0535   0.0469 15.87912275 36056
SOYUZ-MS 17             
1 46613U 20072A   21060.55770078  .00001249  00000-0  30810-4 0  9991
2 46613  51.6463 155.0683 0003083  62.8763  62.1321 15.49021001271919
CREW DRAGON 1           
1 46920U 20084A   21060.55770078  .00001249  00000-0  30810-4 0  9995
2 46920  51.6463 155.0683 0003083  62.8763  62.1321 15.49021001271910
SPOC                    
1 46921U 98067RR  21060.24873633  .00007412  00000-0  12737-3 0  9994
2 46921  51.6430 154.7821 0002414  34.5644 325.5503 15.52234276 18041
BOBCAT-1                
1 46922U 98067RS  21060.28571480  .00010247  00000-0  16852-3 0  9996
2 46922  51.6430 154.2843 0002083  34.6742 325.4383 15.52996162 18014
